IRIDIUM 39              
1 25042U 97069D   25310.28797489  .00000790  00000+0  20099-3 0  9997
2 25042  86.3916 150.2655 0017333 185.1963 174.9064 14.49421301469540
IRIDIUM 38              
1 25043U 97069E   25310.17462441  .00000597  00000+0  18997-3 0  9992
2 25043  86.3998 173.4800 0002774  41.4028 318.7380 14.38263274466366
IRIDIUM 42              
1 25077U 97077A   25310.14656339  .00000535  00000+0  17579-3 0  9993
2 25077  86.4009 179.8300 0002448  67.5552 292.5904 14.36489513461574
IRIDIUM 44              
1 25078U 97077B   25310.13452541  .00000532  00000+0  16162-3 0  9996
2 25078  86.3982 161.4026 0000573  28.3329 331.7901 14.40384109464138
IRIDIUM 45              
1 25104U 97082A   25310.11383940  .00027392  00000+0  82672-3 0  9998
2 25104  86.3553 338.6937 0104617 156.3038 204.3081 15.28795094473673
IRIDIUM 24              
1 25105U 97082B   25310.27074591  .00000679  00000+0  19990-3 0  9997
2 25105  86.3949  20.0196 0010260 338.6252  21.4518 14.42274269463690
IRIDIUM 51              
1 25262U 98018A   25310.09892693  .00073576  00000+0  10167-2 0  9994
2 25262  86.3779 344.9406 0065198  62.2407 298.5445 15.54344564468948
IRIDIUM 57              
1 25273U 98019B   25310.12016186  .00000496  00000+0  16414-3 0  9999
2 25273  86.3930  85.7484 0002005  89.0083 271.1344 14.36004994445152
